HULIANWANG DIGUI-28     
1 63695U 25086J   26197.25434613  .00000055  00000+0  93294-4 0  9993
2 63695  86.5021 303.1411 0002098 111.5526 248.5832 13.24411028 58704
HULIANWANG DIGUI-29     
1 63696U 25086K   26197.32237315  .00000064  00000+0  11401-3 0  9991
2 63696  86.5049 303.2341 0001961 113.4431 246.6909 13.24411381 58719
HULIANWANG DIGUI-30     
1 64283U 25121A   26197.25426516  .00000033  00000+0  41931-4 0  9997
2 64283  86.4996   3.7484 0001960  88.9892 271.1466 13.24409496 54001
HULIANWANG DIGUI-31     
1 64284U 25121B   26197.24675844  .00000020  00000+0  13145-4 0  9999
2 64284  86.5016   3.8277 0001953  89.3716 270.7642 13.24414445 54000
HULIANWANG DIGUI-32     
1 64285U 25121C   26197.23906296  .00000011  00000+0 -74750-5 0  9998
2 64285  86.4957   3.5845 0001914  93.6066 266.5287 13.24410332 54004
HULIANWANG DIGUI-33     
1 64286U 25121D   26197.23151398  .00000002  00000+0 -29227-4 0  9992
2 64286  86.5015   3.8164 0001965  89.9124 270.2236 13.24409965 54003
HULIANWANG DIGUI-34     
1 64287U 25121E   26197.22399625 -.00000009  00000+0 -55180-4 0  9994
2 64287  86.4993   3.7221 0002149  82.5897 277.5481 13.24410658 54005
HULIANWANG DIGUI-35     
1 64956U 25159A   26197.26194115  .00000033  00000+0  43604-4 0  9992
2 64956  86.4940 272.6081 0004470  63.4064 296.7528 13.24413195 46975
HULIANWANG DIGUI-36     
1 64957U 25159B   26197.25803136  .00000040  00000+0  57961-4 0  9991
2 64957  86.4960 272.6753 0001644 102.3965 257.7353 13.24408640 46979
HULIANWANG DIGUI-37     
1 64958U 25159C   26197.25046062  .00000060  00000+0  10544-3 0  9996
2 64958  86.4901 272.4647 0001780  97.9815 262.1521 13.24409367 46973
HULIANWANG DIGUI-38     
1 64959U 25159D   26197.24294154  .00000059  00000+0  10288-3 0  9996
2 64959  86.4960 272.6682 0001839  98.8817 261.2526 13.24409012 46979
HULIANWANG DIGUI-39     
1 64960U 25159E   26197.23537406  .00000072  00000+0  13413-3 0  9995
2 64960  86.4935 272.5796 0001807 101.7274 258.4063 13.24408896 46977
HULIANWANG DIGUI-40     
1 65043U 25162A   26197.26056943 -.00000112  00000+0  26360-4 0  9999
2 65043  49.9979 161.6577 0000281 321.4211  38.6641 13.29327348 47219
HULIANWANG DIGUI-41     
1 65044U 25162B   26197.25223288 -.00000117  00000+0  15160-4 0  9998
2 65044  49.9989 161.6418 0000264 331.0609  29.0249 13.29326963 47225
HULIANWANG DIGUI-42     
1 65045U 25162C   26197.24381326 -.00000111  00000+0  27494-4 0  9993
2 65045  49.9955 161.5015 0000280 319.5322  40.5529 13.29327676 47223
HULIANWANG DIGUI-43     
1 65046U 25162D   26197.23549790 -.00000122  00000+0  50114-5 0  9992
2 65046  49.9971 161.5072 0000320 315.5543  44.5304 13.29326214 47223
