{"fetched_at":"2026-07-16T17:46:34.847Z","source":"https://celestrak.org/NORAD/elements/gp.php?NAME=HULIANWANG&FORMAT=JSON","constellation":"guowang","records":[{"OBJECT_NAME":"HULIANWANG DIGUI-28","OBJECT_ID":"2025-086J","EPOCH":"2026-07-16T06:06:15.505632","CLASSIFICATION_TYPE":"U","MEAN_MOTION":13.24411028,"ECCENTRICITY":0.00020982,"INCLINATION":86.5021,"RA_OF_ASC_NODE":303.1411,"ARG_OF_PERICENTER":111.5526,"MEAN_ANOMALY":248.5832,"EPHEMERIS_TYPE":0,"NORAD_CAT_ID":63695,"ELEMENT_SET_NO":999,"REV_AT_EPOCH":5870,"BSTAR":0.000093294017,"MEAN_MOTION_DOT":5.5e-7,"MEAN_MOTION_DDOT":0},{"OBJECT_NAME":"HULIANWANG DIGUI-29","OBJECT_ID":"2025-086K","EPOCH":"2026-07-16T07:44:13.040160","CLASSIFICATION_TYPE":"U","MEAN_MOTION":13.24411381,"ECCENTRICITY":0.0001961,"INCLINATION":86.5049,"RA_OF_ASC_NODE":303.2341,"ARG_OF_PERICENTER":113.4431,"MEAN_ANOMALY":246.6909,"EPHEMERIS_TYPE":0,"NORAD_CAT_ID":63696,"ELEMENT_SET_NO":999,"REV_AT_EPOCH":5871,"BSTAR":0.0001140063,"MEAN_MOTION_DOT":6.4e-7,"MEAN_MOTION_DDOT":0},{"OBJECT_NAME":"HULIANWANG DIGUI-30","OBJECT_ID":"2025-121A","EPOCH":"2026-07-16T06:06:08.509824","CLASSIFICATION_TYPE":"U","MEAN_MOTION":13.24409496,"ECCENTRICITY":0.00019605,"INCLINATION":86.4996,"RA_OF_ASC_NODE":3.7484,"ARG_OF_PERICENTER":88.9892,"MEAN_ANOMALY":271.1466,"EPHEMERIS_TYPE":0,"NORAD_CAT_ID":64283,"ELEMENT_SET_NO":999,"REV_AT_EPOCH":5400,"BSTAR":0.000041930742,"MEAN_MOTION_DOT":3.3e-7,"MEAN_MOTION_DDOT":0},{"OBJECT_NAME":"HULIANWANG DIGUI-31","OBJECT_ID":"2025-121B","EPOCH":"2026-07-16T05:55:19.929216","CLASSIFICATION_TYPE":"U","MEAN_MOTION":13.24414445,"ECCENTRICITY":0.00019537,"INCLINATION":86.5016,"RA_OF_ASC_NODE":3.8277,"ARG_OF_PERICENTER":89.3716,"MEAN_ANOMALY":270.7642,"EPHEMERIS_TYPE":0,"NORAD_CAT_ID":64284,"ELEMENT_SET_NO":999,"REV_AT_EPOCH":5400,"BSTAR":0.000013144867,"MEAN_MOTION_DOT":2e-7,"MEAN_MOTION_DDOT":0},{"OBJECT_NAME":"HULIANWANG DIGUI-32","OBJECT_ID":"2025-121C","EPOCH":"2026-07-16T05:44:15.039744","CLASSIFICATION_TYPE":"U","MEAN_MOTION":13.24410332,"ECCENTRICITY":0.00019143,"INCLINATION":86.4957,"RA_OF_ASC_NODE":3.5845,"ARG_OF_PERICENTER":93.6066,"MEAN_ANOMALY":266.5287,"EPHEMERIS_TYPE":0,"NORAD_CAT_ID":64285,"ELEMENT_SET_NO":999,"REV_AT_EPOCH":5400,"BSTAR":-0.000007474951,"MEAN_MOTION_DOT":1.1e-7,"MEAN_MOTION_DDOT":0},{"OBJECT_NAME":"HULIANWANG DIGUI-33","OBJECT_ID":"2025-121D","EPOCH":"2026-07-16T05:33:22.807872","CLASSIFICATION_TYPE":"U","MEAN_MOTION":13.24409965,"ECCENTRICITY":0.00019651,"INCLINATION":86.5015,"RA_OF_ASC_NODE":3.8164,"ARG_OF_PERICENTER":89.9124,"MEAN_ANOMALY":270.2236,"EPHEMERIS_TYPE":0,"NORAD_CAT_ID":64286,"ELEMENT_SET_NO":999,"REV_AT_EPOCH":5400,"BSTAR":-0.000029227131,"MEAN_MOTION_DOT":2e-8,"MEAN_MOTION_DDOT":0},{"OBJECT_NAME":"HULIANWANG DIGUI-34","OBJECT_ID":"2025-121E","EPOCH":"2026-07-16T05:22:33.276000","CLASSIFICATION_TYPE":"U","MEAN_MOTION":13.24410658,"ECCENTRICITY":0.00021497,"INCLINATION":86.4993,"RA_OF_ASC_NODE":3.7221,"ARG_OF_PERICENTER":82.5897,"MEAN_ANOMALY":277.5481,"EPHEMERIS_TYPE":0,"NORAD_CAT_ID":64287,"ELEMENT_SET_NO":999,"REV_AT_EPOCH":5400,"BSTAR":-0.000055179805,"MEAN_MOTION_DOT":-9e-8,"MEAN_MOTION_DDOT":0},{"OBJECT_NAME":"HULIANWANG DIGUI-35","OBJECT_ID":"2025-159A","EPOCH":"2026-07-16T06:17:11.715360","CLASSIFICATION_TYPE":"U","MEAN_MOTION":13.24413195,"ECCENTRICITY":0.00044701,"INCLINATION":86.494,"RA_OF_ASC_NODE":272.6081,"ARG_OF_PERICENTER":63.4064,"MEAN_ANOMALY":296.7528,"EPHEMERIS_TYPE":0,"NORAD_CAT_ID":64956,"ELEMENT_SET_NO":999,"REV_AT_EPOCH":4697,"BSTAR":0.000043604282,"MEAN_MOTION_DOT":3.3e-7,"MEAN_MOTION_DDOT":0},{"OBJECT_NAME":"HULIANWANG DIGUI-36","OBJECT_ID":"2025-159B","EPOCH":"2026-07-16T06:11:33.909504","CLASSIFICATION_TYPE":"U","MEAN_MOTION":13.2440864,"ECCENTRICITY":0.00016444,"INCLINATION":86.496,"RA_OF_ASC_NODE":272.6753,"ARG_OF_PERICENTER":102.3965,"MEAN_ANOMALY":257.7353,"EPHEMERIS_TYPE":0,"NORAD_CAT_ID":64957,"ELEMENT_SET_NO":999,"REV_AT_EPOCH":4697,"BSTAR":0.000057961065,"MEAN_MOTION_DOT":4e-7,"MEAN_MOTION_DDOT":0},{"OBJECT_NAME":"HULIANWANG DIGUI-37","OBJECT_ID":"2025-159C","EPOCH":"2026-07-16T06:00:39.797568","CLASSIFICATION_TYPE":"U","MEAN_MOTION":13.24409367,"ECCENTRICITY":0.00017802,"INCLINATION":86.4901,"RA_OF_ASC_NODE":272.4647,"ARG_OF_PERICENTER":97.9815,"MEAN_ANOMALY":262.1521,"EPHEMERIS_TYPE":0,"NORAD_CAT_ID":64958,"ELEMENT_SET_NO":999,"REV_AT_EPOCH":4697,"BSTAR":0.0001054419,"MEAN_MOTION_DOT":6e-7,"MEAN_MOTION_DDOT":0},{"OBJECT_NAME":"HULIANWANG DIGUI-38","OBJECT_ID":"2025-159D","EPOCH":"2026-07-16T05:49:50.149056","CLASSIFICATION_TYPE":"U","MEAN_MOTION":13.24409012,"ECCENTRICITY":0.0001839,"INCLINATION":86.496,"RA_OF_ASC_NODE":272.6682,"ARG_OF_PERICENTER":98.8817,"MEAN_ANOMALY":261.2526,"EPHEMERIS_TYPE":0,"NORAD_CAT_ID":64959,"ELEMENT_SET_NO":999,"REV_AT_EPOCH":4697,"BSTAR":0.00010287829,"MEAN_MOTION_DOT":5.9e-7,"MEAN_MOTION_DDOT":0},{"OBJECT_NAME":"HULIANWANG DIGUI-39","OBJECT_ID":"2025-159E","EPOCH":"2026-07-16T05:38:56.318784","CLASSIFICATION_TYPE":"U","MEAN_MOTION":13.24408896,"ECCENTRICITY":0.00018074,"INCLINATION":86.4935,"RA_OF_ASC_NODE":272.5796,"ARG_OF_PERICENTER":101.7274,"MEAN_ANOMALY":258.4063,"EPHEMERIS_TYPE":0,"NORAD_CAT_ID":64960,"ELEMENT_SET_NO":999,"REV_AT_EPOCH":4697,"BSTAR":0.00013412695,"MEAN_MOTION_DOT":7.2e-7,"MEAN_MOTION_DDOT":0},{"OBJECT_NAME":"HULIANWANG DIGUI-40","OBJECT_ID":"2025-162A","EPOCH":"2026-07-16T06:15:13.198752","CLASSIFICATION_TYPE":"U","MEAN_MOTION":13.29327348,"ECCENTRICITY":0.0000281,"INCLINATION":49.9979,"RA_OF_ASC_NODE":161.6577,"ARG_OF_PERICENTER":321.4211,"MEAN_ANOMALY":38.6641,"EPHEMERIS_TYPE":0,"NORAD_CAT_ID":65043,"ELEMENT_SET_NO":999,"REV_AT_EPOCH":4721,"BSTAR":0.000026360093,"MEAN_MOTION_DOT":-0.00000112,"MEAN_MOTION_DDOT":0},{"OBJECT_NAME":"HULIANWANG DIGUI-41","OBJECT_ID":"2025-162B","EPOCH":"2026-07-16T06:03:12.920832","CLASSIFICATION_TYPE":"U","MEAN_MOTION":13.29326963,"ECCENTRICITY":0.00002647,"INCLINATION":49.9989,"RA_OF_ASC_NODE":161.6418,"ARG_OF_PERICENTER":331.0609,"MEAN_ANOMALY":29.0249,"EPHEMERIS_TYPE":0,"NORAD_CAT_ID":65044,"ELEMENT_SET_NO":999,"REV_AT_EPOCH":4722,"BSTAR":0.000015159906,"MEAN_MOTION_DOT":-0.00000117,"MEAN_MOTION_DDOT":0},{"OBJECT_NAME":"HULIANWANG DIGUI-42","OBJECT_ID":"2025-162C","EPOCH":"2026-07-16T05:51:05.465664","CLASSIFICATION_TYPE":"U","MEAN_MOTION":13.29327676,"ECCENTRICITY":0.00002805,"INCLINATION":49.9955,"RA_OF_ASC_NODE":161.5015,"ARG_OF_PERICENTER":319.5322,"MEAN_ANOMALY":40.5529,"EPHEMERIS_TYPE":0,"NORAD_CAT_ID":65045,"ELEMENT_SET_NO":999,"REV_AT_EPOCH":4722,"BSTAR":0.00002749429,"MEAN_MOTION_DOT":-0.00000111,"MEAN_MOTION_DDOT":0},{"OBJECT_NAME":"HULIANWANG DIGUI-43","OBJECT_ID":"2025-162D","EPOCH":"2026-07-16T05:39:07.018560","CLASSIFICATION_TYPE":"U","MEAN_MOTION":13.29326214,"ECCENTRICITY":0.00003205,"INCLINATION":49.9971,"RA_OF_ASC_NODE":161.5072,"ARG_OF_PERICENTER":315.5543,"MEAN_ANOMALY":44.5304,"EPHEMERIS_TYPE":0,"NORAD_CAT_ID":65046,"ELEMENT_SET_NO":999,"REV_AT_EPOCH":4722,"BSTAR":0.000005011423,"MEAN_MOTION_DOT":-0.00000122,"MEAN_MOTION_DDOT":0}]}
